{
    "links": {
        "self": "http://www.neowsapp.com/rest/v1/neo/3114074?api_key=iIulBulltgU6a56xZRHN4H3l9WmuAYTsLGpBGhQ2"
    },
    "id": "3114074",
    "neo_reference_id": "3114074",
    "name": "(2002 DC3)",
    "designation": "2002 DC3",
    "nasa_jpl_url": "http://ssd.jpl.nasa.gov/sbdb.cgi?sstr=3114074",
    "absolute_magnitude_h": 26.1,
    "estimated_diameter": {
        "kilometers": {
            "estimated_diameter_min": 0.0160160338,
            "estimated_diameter_max": 0.0358129403
        },
        "meters": {
            "estimated_diameter_min": 16.0160337979,
            "estimated_diameter_max": 35.8129403019
        },
        "miles": {
            "estimated_diameter_min": 0.0099518989,
            "estimated_diameter_max": 0.0222531225
        },
        "feet": {
            "estimated_diameter_min": 52.5460443254,
            "estimated_diameter_max": 117.4965270602
        }
    },
    "is_potentially_hazardous_asteroid": false,
    "close_approach_data": [
        {
            "close_approach_date": "2002-02-18",
            "close_approach_date_full": "2002-Feb-18 12:39",
            "epoch_date_close_approach": 1014035940000,
            "relative_velocity": {
                "kilometers_per_second": "5.2599552645",
                "kilometers_per_hour": "18935.8389521499",
                "miles_per_hour": "11765.9939311289"
            },
            "miss_distance": {
                "astronomical": "0.0275661432",
                "lunar": "10.7232297048",
                "kilometers": "4123836.306834984",
                "miles": "2562433.0594674192"
            },
            "orbiting_body": "Earth"
        }
    ],
    "orbital_data": {
        "orbit_id": "8",
        "orbit_determination_date": "2017-04-06 09:15:24",
        "first_observation_date": "2002-02-20",
        "last_observation_date": "2002-04-09",
        "data_arc_in_days": 48,
        "observations_used": 13,
        "orbit_uncertainty": "9",
        "minimum_orbit_intersection": ".0267162",
        "jupiter_tisserand_invariant": "4.104",
        "epoch_osculation": "2452352.5",
        "eccentricity": ".4028953339553256",
        "semi_major_axis": "1.700559956626637",
        "inclination": "3.370000830554935",
        "ascending_node_longitude": "154.1905676667072",
        "orbital_period": "810.0024818358884",
        "perihelion_distance": "1.015412284990494",
        "perihelion_argument": "355.0661939717745",
        "aphelion_distance": "2.38570762826278",
        "perihelion_time": "2452323.482145105526",
        "mean_anomaly": "12.89678488186059",
        "mean_motion": ".4444430826730952",
        "equinox": "J2000",
        "orbit_class": {
            "orbit_class_type": "APO",
            "orbit_class_description": "Near-Earth asteroid orbits which cross the Earth’s orbit similar to that of 1862 Apollo",
            "orbit_class_range": "a (semi-major axis) > 1.0 AU; q (perihelion) < 1.017 AU"
        }
    },
    "is_sentry_object": false
}